GLOBALSTAR M045 [-]     
1 25676U 99019A   23254.50871800 -.00000058  00000+0  31688-3 0  9991
2 25676  51.9999 342.6681 0000792  55.8861 317.0483 12.27014944114490
GLOBALSTAR M019 [-]     
1 25677U 99019B   23254.77242348 -.00000169  00000+0 -81989-3 0  9993
2 25677  51.9881  66.9540 0001852  91.3143  17.6015 12.13845870107072
GLOBALSTAR M044 [-]     
1 25678U 99019C   23254.37809940 -.00000119  00000+0 -48854-3 0  9996
2 25678  51.9973 298.7492 0006306 234.1771 138.8296 11.90222330 94547
GLOBALSTAR M042 [-]     
1 25679U 99019D   23254.25149624 -.00000055  00000+0  35325-3 0  9997
2 25679  52.0013  71.5626 0003842  58.7974 112.5744 12.22046479106408
GLOBALSTAR M025 [-]     
1 25770U 99031A   23254.28138683 -.00000064  00000+0  10996-3 0  9996
2 25770  51.9791 213.2283 0001008 125.3356  24.6146 11.22544602409283
GLOBALSTAR M049 [-]     
1 25771U 99031B   23254.26334790 -.00000045  00000+0  70642-3 0  9995
2 25771  51.9846 215.6215 0002959   4.1806 355.9015 11.12096109 45673
GLOBALSTAR M047 [-]     
1 25772U 99031C   23254.32353918 -.00000039  00000+0  83515-3 0  9992
2 25772  51.9815 274.0655 0016316 235.6558 124.2704 11.31915213398089
GLOBALSTAR M052 [-]     
1 25773U 99031D   23254.51085973 -.00000014  00000+0  17349-2 0  9991
2 25773  51.9900 332.8008 0002678 176.4620 280.2177 11.15045233406599
